{
  "type": "FeatureCollection",
  "features": [
    {
      "type": "Feature",
      "properties": {
        "norad_id": 67001,
        "name": "2025-292J",
        "group": "last-30-days",
        "lat": 17.395218777973014,
        "lon": -116.35228859966763,
        "alt_km": 555.7454797977025,
        "timestamp": "2025-12-14T16:47:39.440042+00:00",
        "meta_object_name": "2025-292J",
        "meta_object_id": "2025-292J",
        "meta_epoch": "2025-12-13T22:30:47.367072",
        "meta_mean_motion": 15.0431981,
        "meta_eccentricity": 0.00143233,
        "meta_inclination": 97.6571,
        "meta_ra_of_asc_node": 60.4776,
        "meta_arg_of_pericenter": 264.5225,
        "meta_mean_anomaly": 95.4367,
        "meta_ephemeris_type": 0,
        "meta_classification_type": "U",
        "meta_norad_cat_id": 67001,
        "meta_element_set_no": 999,
        "meta_rev_at_epoch": 57,
        "meta_bstar": 0.00053579079,
        "meta_mean_motion_dot": 7.423e-05,
        "meta_mean_motion_ddot": 0,
        "tle_line1": "1 67001U 25292J   25347.93804823  .00007423  00000+0  53579-3 0  9999",
        "tle_line2": "2 67001  97.6571  60.4776 0014323 264.5225  95.4367 15.04319810   578"
      },
      "geometry": {
        "type": "Point",
        "coordinates": [
          -116.35228859966763,
          17.395218777973014
        ]
      }
    },
    {
      "type": "Feature",
      "properties": {
        "norad_id": 67002,
        "name": "ZK-1A R/B",
        "group": "last-30-days",
        "lat": -71.25883005653436,
        "lon": -141.94599895719685,
        "alt_km": 446.2811027573125,
        "timestamp": "2025-12-14T16:47:39.440053+00:00",
        "meta_object_name": "ZK-1A R/B",
        "meta_object_id": "2025-292K",
        "meta_epoch": "2025-12-13T22:42:47.781504",
        "meta_mean_motion": 15.55017085,
        "meta_eccentricity": 0.02188046,
        "meta_inclination": 97.7243,
        "meta_ra_of_asc_node": 60.8221,
        "meta_arg_of_pericenter": 1.5658,
        "meta_mean_anomaly": 358.6231,
        "meta_ephemeris_type": 0,
        "meta_classification_type": "U",
        "meta_norad_cat_id": 67002,
        "meta_element_set_no": 999,
        "meta_rev_at_epoch": 58,
        "meta_bstar": 0.00088956214,
        "meta_mean_motion_dot": 0.00181079,
        "meta_mean_motion_ddot": 1.0616991e-05,
        "tle_line1": "1 67002U 25292K   25347.94638636  .00181079  10617-4  88956-3 0  9995",
        "tle_line2": "2 67002  97.7243  60.8221 0218804   1.5658 358.6231 15.55017085   584"
      },
      "geometry": {
        "type": "Point",
        "coordinates": [
          -141.94599895719685,
          -71.25883005653436
        ]
      }
    },
    {
      "type": "Feature",
      "properties": {
        "norad_id": 67059,
        "name": "HULIANWANG DIGUI 16A",
        "group": "last-30-days",
        "lat": 4.21964235174338,
        "lon": -179.58379397048992,
        "alt_km": 804.1367818659082,
        "timestamp": "2025-12-14T16:47:39.440063+00:00",
        "meta_object_name": "HULIANWANG DIGUI 16A",
        "meta_object_id": "2025-295A",
        "meta_epoch": "2025-12-12T05:06:27.347328",
        "meta_mean_motion": 14.25879966,
        "meta_eccentricity": 0.00136284,
        "meta_inclination": 50.0035,
        "meta_ra_of_asc_node": 14.4753,
        "meta_arg_of_pericenter": 247.7813,
        "meta_mean_anomaly": 112.1656,
        "meta_ephemeris_type": 0,
        "meta_classification_type": "U",
        "meta_norad_cat_id": 67059,
        "meta_element_set_no": 999,
        "meta_rev_at_epoch": 4,
        "meta_bstar": 3.434713e-06,
        "meta_mean_motion_dot": -1.52e-06,
        "meta_mean_motion_ddot": 0,
        "tle_line1": "1 67059U 25295A   25346.21281652 -.00000152  00000+0  34347-5 0  9991",
        "tle_line2": "2 67059  50.0035  14.4753 0013628 247.7813 112.1656 14.25879966    41"
      },
      "geometry": {
        "type": "Point",
        "coordinates": [
          -179.58379397048992,
          4.21964235174338
        ]
      }
    },
    {
      "type": "Feature",
      "properties": {
        "norad_id": 67060,
        "name": "HULIANWANG DIGUI 16B",
        "group": "last-30-days",
        "lat": 3.1491719559708584,
        "lon": -178.6809739399564,
        "alt_km": 803.0808115673108,
        "timestamp": "2025-12-14T16:47:39.440073+00:00",
        "meta_object_name": "HULIANWANG DIGUI 16B",
        "meta_object_id": "2025-295B",
        "meta_epoch": "2025-12-12T05:06:25.468992",
        "meta_mean_motion": 14.26022254,
        "meta_eccentricity": 0.0013423,
        "meta_inclination": 50.0012,
        "meta_ra_of_asc_node": 14.4776,
        "meta_arg_of_pericenter": 244.6732,
        "meta_mean_anomaly": 115.2792,
        "meta_ephemeris_type": 0,
        "meta_classification_type": "U",
        "meta_norad_cat_id": 67060,
        "meta_element_set_no": 999,
        "meta_rev_at_epoch": 4,
        "meta_bstar": 4.398892e-06,
        "meta_mean_motion_dot": -1.5e-06,
        "meta_mean_motion_ddot": 0,
        "tle_line1": "1 67060U 25295B   25346.21279478 -.00000150  00000+0  43989-5 0  9996",
        "tle_line2": "2 67060  50.0012  14.4776 0013423 244.6732 115.2792 14.26022254    48"
      },
      "geometry": {
        "type": "Point",
        "coordinates": [
          -178.6809739399564,
          3.1491719559708584
        ]
      }
    },
    {
      "type": "Feature",
      "properties": {
        "norad_id": 67062,
        "name": "HULIANWANG DIGUI 16D",
        "group": "last-30-days",
        "lat": 3.8207261229664553,
        "lon": -179.24905012766772,
        "alt_km": 804.6363984438722,
        "timestamp": "2025-12-14T16:47:39.440085+00:00",
        "meta_object_name": "HULIANWANG DIGUI 16D",
        "meta_object_id": "2025-295D",
        "meta_epoch": "2025-12-12T05:06:24.477120",
        "meta_mean_motion": 14.25916921,
        "meta_eccentricity": 0.00124974,
        "meta_inclination": 50.0052,
        "meta_ra_of_asc_node": 14.4731,
        "meta_arg_of_pericenter": 251.2247,
        "meta_mean_anomaly": 108.7311,
        "meta_ephemeris_type": 0,
        "meta_classification_type": "U",
        "meta_norad_cat_id": 67062,
        "meta_element_set_no": 999,
        "meta_rev_at_epoch": 4,
        "meta_bstar": 3.753899e-06,
        "meta_mean_motion_dot": -1.51e-06,
        "meta_mean_motion_ddot": 0,
        "tle_line1": "1 67062U 25295D   25346.21278330 -.00000151  00000+0  37539-5 0  9999",
        "tle_line2": "2 67062  50.0052  14.4731 0012497 251.2247 108.7311 14.25916921    46"
      },
      "geometry": {
        "type": "Point",
        "coordinates": [
          -179.24905012766772,
          3.8207261229664553
        ]
      }
    },
    {
      "type": "Feature",
      "properties": {
        "norad_id": 67064,
        "name": "HULIANWANG DIGUI 16F",
        "group": "last-30-days",
        "lat": -3.3886501807214096,
        "lon": -173.21778510444847,
        "alt_km": 799.5914007738393,
        "timestamp": "2025-12-14T16:47:39.440095+00:00",
        "meta_object_name": "HULIANWANG DIGUI 16F",
        "meta_object_id": "2025-295F",
        "meta_epoch": "2025-12-12T05:06:22.414752",
        "meta_mean_motion": 14.26957674,
        "meta_eccentricity": 0.00149026,
        "meta_inclination": 50.0027,
        "meta_ra_of_asc_node": 14.4596,
        "meta_arg_of_pericenter": 247.8107,
        "meta_mean_anomaly": 112.1227,
        "meta_ephemeris_type": 0,
        "meta_classification_type": "U",
        "meta_norad_cat_id": 67064,
        "meta_element_set_no": 999,
        "meta_rev_at_epoch": 4,
        "meta_bstar": 2.6251967e-05,
        "meta_mean_motion_dot": -9.6e-07,
        "meta_mean_motion_ddot": 0,
        "tle_line1": "1 67064U 25295F   25346.21275943 -.00000096  00000+0  26252-4 0  9995",
        "tle_line2": "2 67064  50.0027  14.4596 0014902 247.8107 112.1227 14.26957674    44"
      },
      "geometry": {
        "type": "Point",
        "coordinates": [
          -173.21778510444847,
          -3.3886501807214096
        ]
      }
    },
    {
      "type": "Feature",
      "properties": {
        "norad_id": 67066,
        "name": "HULIANWANG DIGUI 16H",
        "group": "last-30-days",
        "lat": 0.0776861506689262,
        "lon": -176.1224302503677,
        "alt_km": 802.4221883053915,
        "timestamp": "2025-12-14T16:47:39.440116+00:00",
        "meta_object_name": "HULIANWANG DIGUI 16H",
        "meta_object_id": "2025-295H",
        "meta_epoch": "2025-12-12T05:06:20.088000",
        "meta_mean_motion": 14.26429655,
        "meta_eccentricity": 0.00114905,
        "meta_inclination": 50.0029,
        "meta_ra_of_asc_node": 14.4606,
        "meta_arg_of_pericenter": 248.6611,
        "meta_mean_anomaly": 111.3077,
        "meta_ephemeris_type": 0,
        "meta_classification_type": "U",
        "meta_norad_cat_id": 67066,
        "meta_element_set_no": 999,
        "meta_rev_at_epoch": 4,
        "meta_bstar": 2.4353642e-05,
        "meta_mean_motion_dot": -1.01e-06,
        "meta_mean_motion_ddot": 0,
        "tle_line1": "1 67066U 25295H   25346.21273250 -.00000101  00000+0  24354-4 0  9994",
        "tle_line2": "2 67066  50.0029  14.4606 0011490 248.6611 111.3077 14.26429655    45"
      },
      "geometry": {
        "type": "Point",
        "coordinates": [
          -176.1224302503677,
          0.0776861506689262
        ]
      }
    }
  ]
}